NORAD_CAT_ID,OBJECT_NAME,OBJECT_TYPE,EPOCH,MEAN_MOTION,ECCENTRICITY,INCLINATION,RA_OF_ASC_NODE,ARG_OF_PERICENTER,MEAN_ANOMALY,BSTAR,MEAN_MOTION_DOT,MEAN_MOTION_DDOT,TLE_LINE0,TLE_LINE1,TLE_LINE2,SEMIMAJOR_AXIS,PERIOD,APOGEE,PERIGEE,DECAYED
51756.0,STARLINK-3513,PAYLOAD,2024-08-10 10:36:03,15.08842887,0.0001514,53.2176,15.9953,111.8708,248.2445,0.00016717,2.374e-05,0.0,0 STARLINK-3513,1 51756U 22016AU  24223.44170356  .00002374  00000-0  16717-3 0  9999,2 51756  53.2176  15.9953 0001514 111.8708 248.2445 15.08842887137785,6917.872,95.437,540.784,538.689,0.0
51756.0,STARLINK-3513,PAYLOAD,2024-08-10 13:46:49,15.08839842,0.0001577,53.2176,15.4003,105.05,255.0667,7.4647e-05,9e-06,0.0,0 STARLINK-3513,1 51756U 22016AU  24223.57418516  .00000900  00000-0  74647-4 0  9996,2 51756  53.2176  15.4003 0001577 105.0500 255.0667 15.08839842136733,6917.881,95.438,540.837,538.655,0.0
51756.0,STARLINK-3513,PAYLOAD,2024-08-10 16:57:35,15.08841107,0.0001418,53.2183,14.8051,109.6191,250.4954,8.8833e-05,1.126e-05,0.0,0 STARLINK-3513,1 51756U 22016AU  24223.70666417  .00001126  00000-0  88833-4 0  9999,2 51756  53.2183  14.8051 0001418 109.6191 250.4954 15.08841107136754,6917.877,95.437,540.723,538.761,0.0
51756.0,STARLINK-3513,PAYLOAD,2024-08-11 10:26:50,15.08837736,0.0001456,53.2185,11.5378,106.9757,253.1395,0.00024362,3.591e-05,0.0,0 STARLINK-3513,1 51756U 22016AU  24224.43530777  .00003591  00000-0  24362-3 0  9993,2 51756  53.2185  11.5378 0001456 106.9757 253.1395 15.08837736137935,6917.887,95.438,540.76,538.745,0.0
51756.0,STARLINK-3513,PAYLOAD,2024-08-11 16:48:23,15.08837749,0.0001294,53.2177,10.3511,98.6754,261.4385,0.0001153,1.547e-05,0.0,0 STARLINK-3513,1 51756U 22016AU  24224.70027061  .00001547  00000-0  11530-3 0  9992,2 51756  53.2177  10.3511 0001294  98.6754 261.4385 15.08837749136907,6917.887,95.438,540.647,538.857,0.0
51756.0,STARLINK-3513,PAYLOAD,2024-08-12 02:20:41,15.08849427,0.0002728,53.2187,8.5644,97.4112,262.7191,0.00012356,1.679e-05,0.0,0 STARLINK-3513,1 51756U 22016AU  24225.09770094  .00001679  00000-0  12356-3 0  9999,2 51756  53.2187   8.5644 0002728  97.4112 262.7191 15.08849427138033,6917.852,95.437,541.604,537.829,0.0
51756.0,STARLINK-3513,PAYLOAD,2024-08-12 10:17:38,15.0881662,0.000175,53.2198,7.0798,103.4704,256.6484,-0.00035418,-5.917e-05,0.0,0 STARLINK-3513,1 51756U 22016AU  24225.42891507 -.00005917  00000-0 -35418-3 0  9994,2 51756  53.2198   7.0798 0001750 103.4704 256.6484 15.08816620138089,6917.952,95.439,541.027,538.606,0.0
51756.0,STARLINK-3513,PAYLOAD,2024-08-12 18:14:32,15.08851665,0.0001362,53.2183,5.5891,106.5644,253.5497,0.00031543,4.737e-05,0.0,0 STARLINK-3513,1 51756U 22016AU  24225.76010149  .00004737  00000-0  31543-3 0  9998,2 51756  53.2183   5.5891 0001362 106.5644 253.5497 15.08851665138130,6917.845,95.437,540.652,538.768,0.0
51756.0,STARLINK-3513,PAYLOAD,2024-08-13 02:11:27,15.08872985,0.0002328,53.2176,4.1065,74.8262,285.2987,0.0007027,0.00010923,0.0,0 STARLINK-3513,1 51756U 22016AU  24226.09129577  .00010923  00000-0  70270-3 0  9995,2 51756  53.2176   4.1065 0002328  74.8262 285.2987 15.08872985138185,6917.78,95.435,541.255,538.034,0.0
51756.0,STARLINK-3513,PAYLOAD,2024-08-13 10:08:26,15.08794125,0.0001033,53.2171,2.6189,79.3177,280.7931,-0.00080024,-0.00012985,0.0,0 STARLINK-3513,1 51756U 22016AU  24226.42252381 -.00012985  00000-0 -80024-3 0  9992,2 51756  53.2171   2.6189 0001033  79.3177 280.7931 15.08794125138231,6918.021,95.44,540.6,539.171,0.0
51756.0,STARLINK-3513,PAYLOAD,2024-08-13 19:40:45,15.08807334,9.75e-05,53.2152,0.8318,73.1823,286.9276,-0.00041963,-6.954e-05,0.0,0 STARLINK-3513,1 51756U 22016AU  24226.81996686 -.00006954  00000-0 -41963-3 0  9996,2 51756  53.2152   0.8318 0000975  73.1823 286.9276 15.08807334138291,6917.98,95.44,540.52,539.171,0.0
51756.0,STARLINK-3513,PAYLOAD,2024-08-14 02:02:17,15.08823441,7.5e-05,53.2188,359.6452,78.0878,282.0198,-9.6849e-05,-1.828e-05,0.0,0 STARLINK-3513,1 51756U 22016AU  24227.08492268 -.00001828  00000-0 -96849-4 0  9992,2 51756  53.2188 359.6452 0000750  78.0878 282.0198 15.08823441138331,6917.931,95.439,540.315,539.277,0.0
51756.0,STARLINK-3513,PAYLOAD,2024-08-14 13:09:59,15.08840344,0.000109,53.2168,357.5635,74.0547,286.0565,0.00049571,7.61e-05,0.0,0 STARLINK-3513,1 51756U 22016AU  24227.54860190  .00007610  00000-0  49571-3 0  9998,2 51756  53.2168 357.5635 0001090  74.0547 286.0565 15.08840344138407,6917.879,95.438,540.498,538.99,0.0
51756.0,STARLINK-3513,PAYLOAD,2024-08-14 14:45:22,15.0884669,0.0001118,53.2177,357.2643,60.031,300.0793,0.0003956,6.015e-05,0.0,0 STARLINK-3513,1 51756U 22016AU  24227.61483873  .00006015  00000-0  39560-3 0  9990,2 51756  53.2177 357.2643 0001118  60.0310 300.0793 15.08846690137349,6917.86,95.437,540.498,538.952,0.0
51756.0,STARLINK-3513,PAYLOAD,2024-08-14 21:06:53,15.08863928,0.0001116,53.2166,356.076,104.4858,255.6259,0.00069851,0.00010854,0.0,0 STARLINK-3513,1 51756U 22016AU  24227.87979064  .00010854  00000-0  69851-3 0  9992,2 51756  53.2166 356.0760 0001116 104.4858 255.6259 15.08863928137381,6917.807,95.436,540.444,538.9,0.0
51756.0,STARLINK-3513,PAYLOAD,2024-08-15 14:36:09,15.08842531,0.0001067,53.2168,352.8057,78.0288,282.0824,0.0004154,6.33e-05,0.0,0 STARLINK-3513,1 51756U 22016AU  24228.60844019  .00006330  00000-0  41540-3 0  9994,2 51756  53.2168 352.8057 0001067  78.0288 282.0824 15.08842531137495,6917.873,95.437,540.476,539.0,0.0
51756.0,STARLINK-3513,PAYLOAD,2024-08-15 16:11:32,15.08845255,0.0001076,53.2169,352.5063,80.2423,279.869,0.00029838,4.465e-05,0.0,0 STARLINK-3513,1 51756U 22016AU  24228.67467779  .00004465  00000-0  29838-3 0  9998,2 51756  53.2169 352.5063 0001076  80.2423 279.8690 15.08845255138577,6917.864,95.437,540.474,538.985,0.0
51756.0,STARLINK-3513,PAYLOAD,2024-08-16 01:43:50,15.0885515,7.4e-05,53.2167,350.7247,71.4289,288.6784,0.00028167,4.2e-05,0.0,0 STARLINK-3513,1 51756U 22016AU  24229.07211050  .00004200  00000-0  28167-3 0  9993,2 51756  53.2167 350.7247 0000740  71.4289 288.6784 15.08855150138632,6917.834,95.437,540.211,539.187,0.0
51756.0,STARLINK-3513,PAYLOAD,2024-08-17 07:56:10,15.08842896,0.0001843,53.2163,345.0709,99.5524,260.5677,0.00014577,2.033e-05,0.0,0 STARLINK-3513,1 51756U 22016AU  24230.33067615  .00002033  00000-0  14577-3 0  9992,2 51756  53.2163 345.0709 0001843  99.5524 260.5677 15.08842896138820,6917.872,95.437,541.012,538.462,0.0
51756.0,STARLINK-3513,PAYLOAD,2024-08-18 12:33:06,15.08845355,0.0001768,53.217,339.7149,123.095,237.0212,0.00013119,1.801e-05,0.0,0 STARLINK-3513,1 51756U 22016AU  24231.52299346  .00001801  00000-0  13119-3 0  9995,2 51756  53.2170 339.7149 0001768 123.0950 237.0212 15.08845355139006,6917.864,95.437,540.952,538.506,0.0
51756.0,STARLINK-3513,PAYLOAD,2024-08-18 17:19:17,15.08779874,0.0001331,53.2182,338.8283,79.7321,280.3821,0.002118,0.00033525,0.0,0 STARLINK-3513,1 51756U 22016AU  24231.72172529  .00033525  00000-0  21180-2 0  9994,2 51756  53.2182 338.8283 0001331  79.7321 280.3821 15.08779874139035,6918.064,95.441,540.85,539.008,0.0
51756.0,STARLINK-3513,PAYLOAD,2024-08-19 13:59:17,15.08825714,0.0001541,53.2193,334.9668,107.8021,252.3139,-8.3311e-05,-1.613e-05,0.0,0 STARLINK-3513,1 51756U 22016AU  24232.58284505 -.00001613  00000-0 -83311-4 0  9998,2 51756  53.2193 334.9668 0001541 107.8021 252.3139 15.08825714139164,6917.924,95.438,540.855,538.723,0.0
51756.0,STARLINK-3513,PAYLOAD,2024-08-20 05:53:08,15.08840501,0.0001249,53.2178,331.9884,95.8223,264.2911,-6.5656e-05,-1.333e-05,0.0,0 STARLINK-3513,1 51756U 22016AU  24233.24524045 -.00001333  00000-0 -65656-4 0  9999,2 51756  53.2178 331.9884 0001249  95.8223 264.2911 15.08840501139261,6917.879,95.438,540.608,538.88,0.0
51756.0,STARLINK-3513,PAYLOAD,2024-08-20 12:14:40,15.08848217,0.0001418,53.2177,330.8017,107.1176,252.9972,0.00015469,2.175e-05,0.0,0 STARLINK-3513,1 51756U 22016AU  24233.51019614  .00002175  00000-0  15469-3 0  9999,2 51756  53.2177 330.8017 0001418 107.1176 252.9972 15.08848217138237,6917.855,95.437,540.701,538.739,0.0
51756.0,STARLINK-3513,PAYLOAD,2024-08-21 12:05:28,15.08841429,0.0002014,53.2165,326.3336,143.6443,216.4686,0.00018768,2.7e-05,0.0,0 STARLINK-3513,1 51756U 22016AU  24234.50379682  .00002700  00000-0  18768-3 0  9992,2 51756  53.2165 326.3336 0002014 143.6443 216.4686 15.08841429139453,6917.876,95.437,541.134,538.348,0.0
51756.0,STARLINK-3513,PAYLOAD,2024-08-21 13:40:51,15.08836035,0.0001188,53.2162,326.045,107.8643,252.2478,4.6266e-05,4.48e-06,0.0,0 STARLINK-3513,1 51756U 22016AU  24234.57004246  .00000448  00000-0  46266-4 0  9992,2 51756  53.2162 326.0450 0001188 107.8643 252.2478 15.08836035138395,6917.893,95.438,540.579,538.936,0.0
51756.0,STARLINK-3513,PAYLOAD,2024-08-21 15:16:15,15.08832971,0.0001161,53.2161,325.7474,93.0032,267.1093,6.1753e-05,6.95e-06,0.0,0 STARLINK-3513,1 51756U 22016AU  24234.63628513  .00000695  00000-0  61753-4 0  9990,2 51756  53.2161 325.7474 0001161  93.0032 267.1093 15.08832971139478,6917.902,95.438,540.57,538.964,0.0
